      2.10          N: GNSS NAV DATA                        RINEX VERSION / TYPE
fic2rin                                 07/03/2018 00:07:37 PGM / RUN BY / DATE
                                                            END OF HEADER
 3 18  7  2 11 59 44.0 9.904941543937e-05 6.366462912410e-12 0.000000000000e+00
    5.000000000000e+01-4.562500000000e+01 4.138743823864e-09-3.089668763849e+00
   -2.289190888405e-06 1.489373273216e-03 1.111067831516e-05 5.153733453751e+03
    1.295840000000e+05 3.911554813385e-08-2.331167200757e+00 2.607703208923e-08
    9.612092823848e-01 1.648437500000e+02 4.663286790441e-01-7.760680406347e-09
    3.639437311458e-10 1.000000000000e+00 2.008000000000e+03 0.000000000000e+00
    2.400000000000e+00 0.000000000000e+00 2.328306436539e-09 5.000000000000e+01
    1.224060000000e+05 4.000000000000e+00
15 18  7  2 11 59 44.0-3.515575081110e-04 6.821210263297e-13 0.000000000000e+00
    7.000000000000e+00 2.243750000000e+01 5.482014062176e-09-8.858325219773e-01
    1.415610313416e-06 1.032699772622e-02 6.081536412239e-06 5.153763422012e+03
    1.295840000000e+05 1.750886440277e-07-1.368958865283e+00 1.043081283569e-07
    9.277776587835e-01 2.405312500000e+02 6.840683848454e-01-8.540712897831e-09
    3.750156209059e-10 1.000000000000e+00 2.008000000000e+03 0.000000000000e+00
    2.400000000000e+00 0.000000000000e+00-1.117587089539e-08 7.000000000000e+00
    1.224060000000e+05 4.000000000000e+00
21 18  7  2 11 59 44.0-3.733043558896e-04 5.343281372916e-12 0.000000000000e+00
    5.000000000000e+00-9.359375000000e+01 4.659122642588e-09 2.302670646447e+00
   -4.976987838745e-06 2.434855699539e-02 3.864988684654e-06 5.153682788849e+03
    1.295840000000e+05 3.129243850708e-07 2.854430003564e+00-1.154839992523e-07
    9.446509705389e-01 2.902500000000e+02-1.547691874939e+00-7.901757711354e-09
   -3.264421690552e-10 1.000000000000e+00 2.008000000000e+03 0.000000000000e+00
    2.400000000000e+00 0.000000000000e+00-1.024454832077e-08 5.000000000000e+00
    1.224060000000e+05 4.000000000000e+00
17 18  7  2 11 59 44.0-8.238572627306e-05 3.751665644813e-12 0.000000000000e+00
    1.300000000000e+01 4.409375000000e+01 4.298750488784e-09-7.538869489317e-02
    2.374872565269e-06 1.237285509706e-02 3.486871719360e-06 5.153579179764e+03
    1.295840000000e+05-1.359730958939e-07 1.907545954409e+00 6.705522537231e-08
    9.827010382199e-01 3.257187500000e+02-1.777359072220e+00-8.392135280405e-09
    5.928818387655e-11 1.000000000000e+00 2.008000000000e+03 0.000000000000e+00
    2.400000000000e+00 0.000000000000e+00-1.117587089539e-08 1.300000000000e+01
    1.224060000000e+05 4.000000000000e+00
 1 18  7  2 12  0  0.0-6.178906187415e-05-3.637978807092e-12 0.000000000000e+00
    6.000000000000e+01-1.028750000000e+02 4.124457514496e-09-2.184933181020e+00
   -5.247071385384e-06 7.950676255859e-03 5.370005965233e-06 5.153671758652e+03
    1.296000000000e+05-1.862645149231e-08 2.909648408227e+00-5.029141902924e-08
    9.720312569121e-01 2.815937500000e+02 6.526573334548e-01-7.928901699153e-09
   -1.882221259213e-10 1.000000000000e+00 2.008000000000e+03 0.000000000000e+00
    2.400000000000e+00 0.000000000000e+00 5.587935447693e-09 6.000000000000e+01
    1.224060000000e+05 4.000000000000e+00
 2 18  7  2 12  0  0.0 6.931414827704e-05-1.080024958355e-11 0.000000000000e+00
    4.600000000000e+01-8.353125000000e+01 4.645907806423e-09-1.855676113639e+00
   -4.202127456665e-06 1.791816728655e-02 4.209578037262e-06 5.153767932892e+03
    1.296000000000e+05 4.637986421585e-07 2.847797767899e+00 6.891787052155e-08
    9.510743497785e-01 2.918750000000e+02-1.848806807710e+00-8.056764167995e-09
   -2.225092684042e-10 1.000000000000e+00 2.008000000000e+03 0.000000000000e+00
    2.400000000000e+00 0.000000000000e+00-2.048909664154e-08 4.600000000000e+01
    1.224060000000e+05 4.000000000000e+00
 6 18  7  2 12  0  0.0 3.909966908395e-04-3.524291969370e-12 0.000000000000e+00
    9.000000000000e+00-9.034375000000e+01 4.282678390745e-09-2.017157833006e+00
   -4.768371582031e-06 1.082747825421e-03 4.975125193596e-06 5.153656715393e+03
    1.296000000000e+05 3.725290298462e-08 2.901325441565e+00 7.450580596924e-08
    9.717363882182e-01 2.914687500000e+02-1.053875048572e+00-8.131410134442e-09
   -2.646538810393e-10 1.000000000000e+00 2.008000000000e+03 0.000000000000e+00
    2.400000000000e+00 0.000000000000e+00 4.656612873077e-09 9.000000000000e+00
    1.224060000000e+05 4.000000000000e+00
14 18  7  2 12  0  0.0-9.755557402968e-05-1.136868377216e-13 0.000000000000e+00
    1.000000000000e+01 2.150000000000e+01 4.906632952386e-09-3.351217933164e-01
    1.162290573120e-06 1.002031972166e-02 6.143003702164e-06 5.153592977524e+03
    1.296000000000e+05-6.519258022308e-08-1.207156853168e+00 1.490116119385e-07
    9.605376742496e-01 2.659687500000e+02-1.948541347243e+00-8.310346159274e-09
    3.282279577262e-10 1.000000000000e+00 2.008000000000e+03 0.000000000000e+00
    2.400000000000e+00 0.000000000000e+00-9.778887033463e-09 1.000000000000e+01
    1.224060000000e+05 4.000000000000e+00
 8 18  7  2 12  0  0.0-1.067682169378e-04-1.250555214938e-12 0.000000000000e+00
    6.300000000000e+01 5.212500000000e+01 4.501973239542e-09 3.058536609012e-01
    2.523884177208e-06 3.451484488323e-03 2.965331077576e-06 5.153589027405e+03
    1.296000000000e+05 6.146728992462e-08 1.844509795991e+00-4.470348358154e-08
    9.691908522435e-01 3.269687500000e+02-4.046932632245e-01-8.324632468642e-09
    3.250135381184e-11 1.000000000000e+00 2.008000000000e+03 0.000000000000e+00
    2.400000000000e+00 0.000000000000e+00 5.122274160385e-09 6.300000000000e+01
    1.224060000000e+05 4.000000000000e+00
 5 18  7  2 12  0  0.0-5.222391337156e-06 5.684341886081e-13 0.000000000000e+00
    9.600000000000e+01-4.337500000000e+01 4.513402287036e-09 8.160206814625e-01
   -2.097338438034e-06 5.437435815111e-03 9.872019290924e-06 5.153737771988e+03
    1.296000000000e+05-1.005828380585e-07-2.353490245161e+00 7.450580596924e-08
    9.481160865778e-01 1.836250000000e+02 6.240877268674e-01-7.966046103509e-09
    2.325096849617e-10 1.000000000000e+00 2.008000000000e+03 0.000000000000e+00
    2.400000000000e+00 0.000000000000e+00-1.117587089539e-08 9.600000000000e+01
    1.224060000000e+05 4.000000000000e+00
 4 18  7  2 12  0  0.0 7.515354081988e-05 3.524291969370e-12 0.000000000000e+00
    4.000000000000e+01 7.250000000000e+01 5.387367262614e-09 1.214082504850e+00
    3.904104232788e-06 9.812506265007e-03 9.469687938690e-06 5.153712770462e+03
    1.296000000000e+05-1.415610313416e-07 8.380578175463e-01 1.322478055954e-07
    9.788320178139e-01 2.088437500000e+02 9.326326830490e-01-7.889257190657e-09
   -1.228622605635e-10 1.000000000000e+00 2.008000000000e+03 0.000000000000e+00
    2.400000000000e+00 6.300000000000e+01-1.955777406693e-08 4.000000000000e+01
    1.224060000000e+05 4.000000000000e+00
22 18  7  2 12  0  0.0-4.447870887816e-04-1.216449163621e-11 0.000000000000e+00
    8.500000000000e+01-4.303125000000e+01 4.972349975478e-09-7.104499472863e-01
   -2.184882760048e-06 7.319319527596e-03 1.087412238121e-05 5.153782234192e+03
    1.296000000000e+05-8.195638656616e-08-2.392078028863e+00 1.359730958939e-07
    9.253711088039e-01 1.526250000000e+02-1.517362260869e+00-8.288916695223e-09
    3.560862609935e-10 1.000000000000e+00 2.008000000000e+03 0.000000000000e+00
    2.400000000000e+00 0.000000000000e+00-1.769512891769e-08 8.500000000000e+01
    1.224060000000e+05 4.000000000000e+00
11 18  7  2 12  0  0.0-7.317545823753e-04 1.477928890381e-12 0.000000000000e+00
    7.900000000000e+01-5.450000000000e+01 5.731310160645e-09-2.852529939230e+00
   -2.637505531311e-06 1.695616461802e-02 1.318752765656e-06 5.153643995285e+03
    1.296000000000e+05 1.359730958939e-07 2.480409657396e+00 1.229345798492e-07
    9.058991688509e-01 3.235000000000e+02 1.776235805682e+00-8.628573700443e-09
   -1.560779298437e-10 1.000000000000e+00 2.008000000000e+03 0.000000000000e+00
    2.400000000000e+00 0.000000000000e+00-1.210719347000e-08 7.900000000000e+01
    1.224060000000e+05 4.000000000000e+00
 7 18  7  2 12  0  0.0 1.656929962337e-04-6.366462912410e-12 0.000000000000e+00
    7.100000000000e+01-9.531250000000e+00 4.768412909252e-09-2.855369643161e+00
   -6.407499313354e-07 1.184169866610e-02 7.998198270798e-06 5.153652755737e+03
    1.296000000000e+05-1.490116119385e-08-2.197248212665e-01-2.309679985046e-07
    9.585007992799e-01 2.270937500000e+02-2.518545024904e+00-7.904614973228e-09
   -3.535861568541e-10 1.000000000000e+00 2.008000000000e+03 0.000000000000e+00
    2.400000000000e+00 0.000000000000e+00-1.117587089539e-08 7.100000000000e+01
    1.224060000000e+05 4.000000000000e+00
12 18  7  2 12  0  0.0 3.236462362111e-04-2.501110429876e-12 0.000000000000e+00
    6.000000000000e+01 6.881250000000e+01 3.806944288796e-09 2.848039749179e+00
    3.445893526077e-06 7.152424892411e-03 9.184703230858e-06 5.153569839478e+03
    1.296000000000e+05-3.725290298462e-08 8.731640083629e-01-1.359730958939e-07
    9.863747049342e-01 2.110625000000e+02 1.001038913837e+00-7.539599768879e-09
   -9.786121916973e-11 1.000000000000e+00 2.008000000000e+03 0.000000000000e+00
    2.400000000000e+00 0.000000000000e+00-1.257285475731e-08 6.000000000000e+01
    1.224060000000e+05 4.000000000000e+00
10 18  7  2 12  0  0.0 1.888433471322e-04 1.136868377216e-13 0.000000000000e+00
    1.000000000000e+02-3.356250000000e+01 4.234462096629e-09 2.024235041537e+00
   -1.728534698486e-06 3.614468150772e-03 1.028180122375e-05 5.153668846130e+03
    1.296000000000e+05-5.587935447693e-08-2.334600469069e+00 0.000000000000e+00
    9.612966873513e-01 1.800000000000e+02-2.751947640134e+00-7.797467652969e-09
    2.546534644818e-10 1.000000000000e+00 2.008000000000e+03 0.000000000000e+00
    2.400000000000e+00 0.000000000000e+00 1.862645149231e-09 1.000000000000e+02
    1.224060000000e+05 4.000000000000e+00
